ONEWEB-0412             
1 50489U 21132W   23272.77766423  .00000057  00000+0  11211-3 0  9993
2 50489  87.9236 172.6380 0002232  88.4936 271.6452 13.18689358 92276
ONEWEB-0413             
1 50490U 21132X   23272.25075301  .00000027  00000+0  36598-4 0  9999
2 50490  87.9299 172.7355 0002161  83.0141 277.1237 13.18687203 90862
ONEWEB-0414             
1 50491U 21132Y   23272.76819040  .00000097  00000+0  21208-3 0  9990
2 50491  87.9292 172.6227 0001830  88.2549 271.8793 13.18687564 92257
ONEWEB-0417             
1 50492U 21132Z   23272.24442878  .00000016  00000+0  77008-5 0  9997
2 50492  87.9236 172.7575 0001462  74.8959 285.2335 13.18685254 90871
ONEWEB-0418             
1 50493U 21132AA  23272.25813271  .00000004  00000+0 -23466-4 0  9994
2 50493  87.9295 172.7230 0001213  81.5368 278.5902 13.18686419 90934
ONEWEB-0419             
1 50494U 21132AB  23272.72709927  .00000079  00000+0  16689-3 0  9998
2 50494  87.9293 172.6552 0001481  65.7116 294.4171 13.18688751 92209
ONEWEB-0421             
1 50496U 21132AD  23272.23177573  .00000035  00000+0  57179-4 0  9994
2 50496  87.9238 172.7488 0001999  89.1000 271.0361 13.18688692 90883
